<?xml version='1.0' encoding='utf-8'?>
<q:quakeml xmlns:q="http://quakeml.org/xmlns/quakeml/1.2" xmlns="http://quakeml.org/xmlns/bed/1.2">
  <eventParameters publicID="smi:local/NA">
    <event publicID="smi:local/nkua2019ejdk">
      <preferredOriginID>smi:local/Origin#20190304122857.430749.39476</preferredOriginID>
      <preferredMagnitudeID>smi:local/Origin#20190304122857.430749.39476#netMag.M</preferredMagnitudeID>
      <type>earthquake</type>
      <description>
        <text>Greece</text>
        <type>region name</type>
      </description>
      <creationInfo>
        <agencyID>HA</agencyID>
        <author>scevent@sc3-jakarta</author>
        <creationTime>2019-03-03T22:06:37.177695Z</creationTime>
      </creationInfo>
      <origin publicID="smi:local/Origin#20190304122857.430749.39476">
        <time>
          <value>2019-03-03T22:05:54.469999Z</value>
        </time>
        <latitude>
          <value>38.37233333</value>
          <uncertainty>0.3535533906</uncertainty>
        </latitude>
        <longitude>
          <value>21.91216667</value>
          <uncertainty>0.3535533906</uncertainty>
        </longitude>
        <depth>
          <value>7120.0</value>
          <uncertainty>900.0</uncertainty>
        </depth>
        <methodID>smi:local/Hypo71</methodID>
        <earthModelID>smi:local/MyModel</earthModelID>
        <quality>
          <associatedPhaseCount>9</associatedPhaseCount>
          <usedPhaseCount>9</usedPhaseCount>
          <usedStationCount>8</usedStationCount>
          <depthPhaseCount>0</depthPhaseCount>
          <standardError>0.07</standardError>
          <azimuthalGap>147.0</azimuthalGap>
          <groundTruthLevel>B</groundTruthLevel>
          <minimumDistance>0.03779258381</minimumDistance>
          <maximumDistance>0.08998234239</maximumDistance>
          <medianDistance>8.1</medianDistance>
        </quality>
        <evaluationMode>manual</evaluationMode>
        <evaluationStatus>confirmed</evaluationStatus>
        <creationInfo>
          <agencyID>HA</agencyID>
          <author>A.Karakonstantis</author>
          <creationTime>2019-03-04T12:28:57.431874Z</creationTime>
        </creationInfo>
        <arrival publicID="smi:local/Pick#20190304122822.669147.39413#Origin#20190304122857.430749.39476">
          <pickID>smi:local/Pick#20190304122822.669147.39413</pickID>
          <phase>P</phase>
          <azimuth>304.0</azimuth>
          <distance>0.03779258381</distance>
          <takeoffAngle>
            <value>144.0</value>
          </takeoffAngle>
          <timeResidual>-0.03</timeResidual>
          <timeWeight>1.0</timeWeight>
          <creationInfo>
            <author>Hypo71</author>
            <creationTime>2019-03-04T12:28:57.431061Z</creationTime>
          </creationInfo>
        </arrival>
        <arrival publicID="smi:local/Pick#20190304122855.324581.39473#Origin#20190304122857.430749.39476">
          <pickID>smi:local/Pick#20190304122855.324581.39473</pickID>
          <phase>S</phase>
          <azimuth>304.0</azimuth>
          <distance>0.03779258381</distance>
          <takeoffAngle>
            <value>144.0</value>
          </takeoffAngle>
          <timeResidual>-0.1</timeResidual>
          <timeWeight>1.0</timeWeight>
          <creationInfo>
            <author>Hypo71</author>
            <creationTime>2019-03-04T12:28:57.431061Z</creationTime>
          </creationInfo>
        </arrival>
        <arrival publicID="smi:local/Pick#20190304122822.669249.39414#Origin#20190304122857.430749.39476">
          <pickID>smi:local/Pick#20190304122822.669249.39414</pickID>
          <phase>P</phase>
          <azimuth>355.0</azimuth>
          <distance>0.05488922886</distance>
          <takeoffAngle>
            <value>131.0</value>
          </takeoffAngle>
          <timeResidual>0.06</timeResidual>
          <timeWeight>1.0</timeWeight>
          <creationInfo>
            <author>Hypo71</author>
            <creationTime>2019-03-04T12:28:57.431224Z</creationTime>
          </creationInfo>
        </arrival>
        <arrival publicID="smi:local/Pick#20190304122848.636657.39455#Origin#20190304122857.430749.39476">
          <pickID>smi:local/Pick#20190304122848.636657.39455</pickID>
          <phase>S</phase>
          <azimuth>355.0</azimuth>
          <distance>0.05488922886</distance>
          <takeoffAngle>
            <value>131.0</value>
          </takeoffAngle>
          <timeResidual>0.1</timeResidual>
          <timeWeight>1.0</timeWeight>
          <creationInfo>
            <author>Hypo71</author>
            <creationTime>2019-03-04T12:28:57.431224Z</creationTime>
          </creationInfo>
        </arrival>
        <arrival publicID="smi:local/Pick#20190304122822.669352.39415#Origin#20190304122857.430749.39476">
          <pickID>smi:local/Pick#20190304122822.669352.39415</pickID>
          <phase>P</phase>
          <azimuth>157.0</azimuth>
          <distance>0.07288569734</distance>
          <takeoffAngle>
            <value>122.0</value>
          </takeoffAngle>
          <timeResidual>0.07</timeResidual>
          <timeWeight>1.0</timeWeight>
          <creationInfo>
            <author>Hypo71</author>
            <creationTime>2019-03-04T12:28:57.431315Z</creationTime>
          </creationInfo>
        </arrival>
        <arrival publicID="smi:local/Pick#20190304122848.636924.39456#Origin#20190304122857.430749.39476">
          <pickID>smi:local/Pick#20190304122848.636924.39456</pickID>
          <phase>S</phase>
          <azimuth>157.0</azimuth>
          <distance>0.07288569734</distance>
          <takeoffAngle>
            <value>122.0</value>
          </takeoffAngle>
          <timeResidual>0.01</timeResidual>
          <timeWeight>1.0</timeWeight>
          <creationInfo>
            <author>Hypo71</author>
            <creationTime>2019-03-04T12:28:57.431315Z</creationTime>
          </creationInfo>
        </arrival>
        <arrival publicID="smi:local/Pick#20190304122822.669453.39416#Origin#20190304122857.430749.39476">
          <pickID>smi:local/Pick#20190304122822.669453.39416</pickID>
          <phase>P</phase>
          <azimuth>65.0</azimuth>
          <distance>0.08998234239</distance>
          <takeoffAngle>
            <value>114.0</value>
          </takeoffAngle>
          <timeResidual>-0.11</timeResidual>
          <timeWeight>1.0</timeWeight>
          <creationInfo>
            <author>Hypo71</author>
            <creationTime>2019-03-04T12:28:57.431407Z</creationTime>
          </creationInfo>
        </arrival>
        <arrival publicID="smi:local/Pick#20190304122848.637063.39457#Origin#20190304122857.430749.39476">
          <pickID>smi:local/Pick#20190304122848.637063.39457</pickID>
          <phase>S</phase>
          <azimuth>65.0</azimuth>
          <distance>0.08998234239</distance>
          <takeoffAngle>
            <value>114.0</value>
          </takeoffAngle>
          <timeResidual>-0.0</timeResidual>
          <timeWeight>1.0</timeWeight>
          <creationInfo>
            <author>Hypo71</author>
            <creationTime>2019-03-04T12:28:57.431407Z</creationTime>
          </creationInfo>
        </arrival>
      </origin>
      <magnitude publicID="smi:local/Magnitude#20190304122857.802671.39481">
        <mag>
          <value>0.2838656143</value>
          <uncertainty>0.2739262615</uncertainty>
        </mag>
        <type>MLv</type>
        <originID>smi:local/Origin#20190304122857.430749.39476</originID>
        <methodID>smi:local/trimmed_mean</methodID>
        <stationCount>4</stationCount>
        <stationMagnitudeContribution>
          <stationMagnitudeID>StationMagnitude#20190304122857.803128.39482</stationMagnitudeID>
          <weight>0.5</weight>
          <residual>0.3698941972</residual>
        </stationMagnitudeContribution>
        <stationMagnitudeContribution>
          <stationMagnitudeID>StationMagnitude#20190304122857.803494.39483</stationMagnitudeID>
          <weight>1.0</weight>
          <residual>0.005139254948</residual>
        </stationMagnitudeContribution>
        <stationMagnitudeContribution>
          <stationMagnitudeID>StationMagnitude#20190304122857.803759.39484</stationMagnitudeID>
          <weight>1.0</weight>
          <residual>0.01177410978</residual>
        </stationMagnitudeContribution>
        <stationMagnitudeContribution>
          <stationMagnitudeID>StationMagnitude#20190304122857.804011.39485</stationMagnitudeID>
          <weight>0.5</weight>
          <residual>-0.4037209266</residual>
        </stationMagnitudeContribution>
        <creationInfo>
          <agencyID>HA</agencyID>
          <author>A.Karakonstantis</author>
          <creationTime>2019-03-04T12:28:57.802734Z</creationTime>
        </creationInfo>
      </magnitude>
      <magnitude publicID="smi:local/Origin#20190304122857.430749.39476#netMag.M">
        <mag>
          <value>0.2838656143</value>
        </mag>
        <type>M</type>
        <originID>smi:local/Origin#20190304122857.430749.39476</originID>
        <methodID>smi:local/weighted_average</methodID>
        <stationCount>4</stationCount>
        <creationInfo>
          <agencyID>HA</agencyID>
          <author>scmag@sc3-jakarta</author>
          <creationTime>2019-03-04T14:29:11.775987Z</creationTime>
        </creationInfo>
      </magnitude>
      <stationMagnitude publicID="smi:local/StationMagnitude#20190304122857.803128.39482">
        <originID>smi:local/Origin#20190304122857.430749.39476</originID>
        <mag>
          <value>0.6537598114</value>
        </mag>
        <type>MLv</type>
        <amplitudeID>smi:local/Amplitude#20190304122857.673432.39477</amplitudeID>
        <waveformID channelCode="HHZ" locationCode="00" networkCode="CL" stationCode="MALA"></waveformID>
        <creationInfo>
          <agencyID>HA</agencyID>
          <author>A.Karakonstantis</author>
          <creationTime>2019-03-04T12:28:57.803157Z</creationTime>
        </creationInfo>
      </stationMagnitude>
      <stationMagnitude publicID="smi:local/StationMagnitude#20190304122857.803494.39483">
        <originID>smi:local/Origin#20190304122857.430749.39476</originID>
        <mag>
          <value>0.2890048692</value>
        </mag>
        <type>MLv</type>
        <amplitudeID>smi:local/Amplitude#20190304122857.710231.39480</amplitudeID>
        <waveformID channelCode="HHZ" networkCode="HP" stationCode="EFP"></waveformID>
        <creationInfo>
          <agencyID>HA</agencyID>
          <author>A.Karakonstantis</author>
          <creationTime>2019-03-04T12:28:57.803513Z</creationTime>
        </creationInfo>
      </stationMagnitude>
      <stationMagnitude publicID="smi:local/StationMagnitude#20190304122857.803759.39484">
        <originID>smi:local/Origin#20190304122857.430749.39476</originID>
        <mag>
          <value>0.295639724</value>
        </mag>
        <type>MLv</type>
        <amplitudeID>smi:local/Amplitude#20190304122857.697158.39479</amplitudeID>
        <waveformID channelCode="EHZ" locationCode="02" networkCode="CL" stationCode="ZIRI"></waveformID>
        <creationInfo>
          <agencyID>HA</agencyID>
          <author>A.Karakonstantis</author>
          <creationTime>2019-03-04T12:28:57.803779Z</creationTime>
        </creationInfo>
      </stationMagnitude>
      <stationMagnitude publicID="smi:local/StationMagnitude#20190304122857.804011.39485">
        <originID>smi:local/Origin#20190304122857.430749.39476</originID>
        <mag>
          <value>-0.1198553123</value>
        </mag>
        <type>MLv</type>
        <amplitudeID>smi:local/Amplitude#20190304122857.685667.39478</amplitudeID>
        <waveformID channelCode="EHZ" locationCode="00" networkCode="CL" stationCode="PYRG"></waveformID>
        <creationInfo>
          <agencyID>HA</agencyID>
          <author>A.Karakonstantis</author>
          <creationTime>2019-03-04T12:28:57.804031Z</creationTime>
        </creationInfo>
      </stationMagnitude>
      <pick publicID="smi:local/Pick#20190304122822.669147.39413">
        <time>
          <value>2019-03-03T22:05:56.041359Z</value>
        </time>
        <waveformID channelCode="HHZ" locationCode="00" networkCode="CL" stationCode="MALA"></waveformID>
        <filterID>smi:local/BW(4,3.5,15)</filterID>
        <phaseHint>P</phaseHint>
        <evaluationMode>manual</evaluationMode>
        <creationInfo>
          <agencyID>HA</agencyID>
          <author>A.Karakonstantis</author>
          <creationTime>2019-03-04T12:28:22.669199Z</creationTime>
        </creationInfo>
      </pick>
      <pick publicID="smi:local/Pick#20190304122855.324581.39473">
        <time>
          <value>2019-03-03T22:05:57.185942Z</value>
        </time>
        <waveformID channelCode="HH2" locationCode="00" networkCode="CL" stationCode="MALA"></waveformID>
        <filterID>smi:local/BW(4,3.5,15)</filterID>
        <phaseHint>S</phaseHint>
        <evaluationMode>manual</evaluationMode>
        <creationInfo>
          <agencyID>HA</agencyID>
          <author>A.Karakonstantis</author>
          <creationTime>2019-03-04T12:28:55.324723Z</creationTime>
        </creationInfo>
      </pick>
      <pick publicID="smi:local/Pick#20190304122822.669249.39414">
        <time>
          <value>2019-03-03T22:05:56.362829Z</value>
        </time>
        <waveformID channelCode="HHZ" networkCode="HP" stationCode="EFP"></waveformID>
        <filterID>smi:local/BW(4,3.5,15)</filterID>
        <phaseHint>P</phaseHint>
        <evaluationMode>manual</evaluationMode>
        <creationInfo>
          <agencyID>HA</agencyID>
          <author>A.Karakonstantis</author>
          <creationTime>2019-03-04T12:28:22.669301Z</creationTime>
        </creationInfo>
      </pick>
      <pick publicID="smi:local/Pick#20190304122848.636657.39455">
        <time>
          <value>2019-03-03T22:05:57.788578Z</value>
        </time>
        <waveformID channelCode="HHN" networkCode="HP" stationCode="EFP"></waveformID>
        <filterID>smi:local/BW(4,3.5,15)</filterID>
        <phaseHint>S</phaseHint>
        <evaluationMode>manual</evaluationMode>
        <creationInfo>
          <agencyID>HA</agencyID>
          <author>A.Karakonstantis</author>
          <creationTime>2019-03-04T12:28:48.636801Z</creationTime>
        </creationInfo>
      </pick>
      <pick publicID="smi:local/Pick#20190304122822.669352.39415">
        <time>
          <value>2019-03-03T22:05:56.699493Z</value>
        </time>
        <waveformID channelCode="EHZ" locationCode="02" networkCode="CL" stationCode="ZIRI"></waveformID>
        <filterID>smi:local/BW(4,3.5,15)</filterID>
        <phaseHint>P</phaseHint>
        <evaluationMode>manual</evaluationMode>
        <creationInfo>
          <agencyID>HA</agencyID>
          <author>A.Karakonstantis</author>
          <creationTime>2019-03-04T12:28:22.669404Z</creationTime>
        </creationInfo>
      </pick>
      <pick publicID="smi:local/Pick#20190304122848.636924.39456">
        <time>
          <value>2019-03-03T22:05:58.272968Z</value>
        </time>
        <waveformID channelCode="EHE" locationCode="02" networkCode="CL" stationCode="ZIRI"></waveformID>
        <filterID>smi:local/BW(4,3.5,15)</filterID>
        <phaseHint>S</phaseHint>
        <evaluationMode>manual</evaluationMode>
        <creationInfo>
          <agencyID>HA</agencyID>
          <author>A.Karakonstantis</author>
          <creationTime>2019-03-04T12:28:48.636978Z</creationTime>
        </creationInfo>
      </pick>
      <pick publicID="smi:local/Pick#20190304122822.669453.39416">
        <time>
          <value>2019-03-03T22:05:56.820526Z</value>
        </time>
        <waveformID channelCode="EHZ" locationCode="00" networkCode="CL" stationCode="PYRG"></waveformID>
        <filterID>smi:local/BW(4,3.5,15)</filterID>
        <phaseHint>P</phaseHint>
        <evaluationMode>manual</evaluationMode>
        <creationInfo>
          <agencyID>HA</agencyID>
          <author>A.Karakonstantis</author>
          <creationTime>2019-03-04T12:28:22.669505Z</creationTime>
        </creationInfo>
      </pick>
      <pick publicID="smi:local/Pick#20190304122848.637063.39457">
        <time>
          <value>2019-03-03T22:05:58.794038Z</value>
        </time>
        <waveformID channelCode="EHN" locationCode="00" networkCode="CL" stationCode="PYRG"></waveformID>
        <filterID>smi:local/BW(4,3.5,15)</filterID>
        <phaseHint>S</phaseHint>
        <evaluationMode>manual</evaluationMode>
        <creationInfo>
          <agencyID>HA</agencyID>
          <author>A.Karakonstantis</author>
          <creationTime>2019-03-04T12:28:48.637116Z</creationTime>
        </creationInfo>
      </pick>
      <amplitude publicID="smi:local/Amplitude#20190304122857.673432.39477">
        <genericAmplitude>
          <value>0.2185893982</value>
        </genericAmplitude>
        <type>MLv</type>
        <snr>1.528943117</snr>
        <timeWindow>
          <reference>2019-03-03T22:06:16.080000Z</reference>
          <begin>-25.04</begin>
          <end>11.36</end>
        </timeWindow>
        <pickID>smi:local/Pick#20190304122822.669147.39413</pickID>
        <waveformID channelCode="HHZ" locationCode="00" networkCode="CL" stationCode="MALA"></waveformID>
        <creationInfo>
          <agencyID>HA</agencyID>
          <author>A.Karakonstantis</author>
          <creationTime>2019-03-04T12:28:57.673527Z</creationTime>
        </creationInfo>
      </amplitude>
      <amplitude publicID="smi:local/Amplitude#20190304122857.710231.39480">
        <genericAmplitude>
          <value>0.1088349968</value>
        </genericAmplitude>
        <type>MLv</type>
        <snr>1.656270996</snr>
        <timeWindow>
          <reference>2019-03-03T22:05:59.440000Z</reference>
          <begin>-8.08</begin>
          <end>28.96</end>
        </timeWindow>
        <pickID>smi:local/Pick#20190304122822.669249.39414</pickID>
        <waveformID channelCode="HHZ" networkCode="HP" stationCode="EFP"></waveformID>
        <creationInfo>
          <agencyID>HA</agencyID>
          <author>A.Karakonstantis</author>
          <creationTime>2019-03-04T12:28:57.710294Z</creationTime>
        </creationInfo>
      </amplitude>
      <amplitude publicID="smi:local/Amplitude#20190304122857.697158.39479">
        <genericAmplitude>
          <value>0.09856804352</value>
        </genericAmplitude>
        <type>MLv</type>
        <snr>4.68876283</snr>
        <timeWindow>
          <reference>2019-03-03T22:05:59.020000Z</reference>
          <begin>-7.32</begin>
          <end>30.38</end>
        </timeWindow>
        <pickID>smi:local/Pick#20190304122822.669352.39415</pickID>
        <waveformID channelCode="EHZ" locationCode="02" networkCode="CL" stationCode="ZIRI"></waveformID>
        <creationInfo>
          <agencyID>HA</agencyID>
          <author>A.Karakonstantis</author>
          <creationTime>2019-03-04T12:28:57.697203Z</creationTime>
        </creationInfo>
      </amplitude>
      <amplitude publicID="smi:local/Amplitude#20190304122857.685667.39478">
        <genericAmplitude>
          <value>0.02133860449</value>
        </genericAmplitude>
        <type>MLv</type>
        <snr>4.177276442</snr>
        <timeWindow>
          <reference>2019-03-03T22:05:59.015000Z</reference>
          <begin>-7.19</begin>
          <end>31.14</end>
        </timeWindow>
        <pickID>smi:local/Pick#20190304122822.669453.39416</pickID>
        <waveformID channelCode="EHZ" locationCode="00" networkCode="CL" stationCode="PYRG"></waveformID>
        <creationInfo>
          <agencyID>HA</agencyID>
          <author>A.Karakonstantis</author>
          <creationTime>2019-03-04T12:28:57.685738Z</creationTime>
        </creationInfo>
      </amplitude>
    </event>
    <event publicID="smi:local/nkua2019ejqb">
      <preferredOriginID>smi:local/Origin#20190304112735.488439.30434</preferredOriginID>
